{"type": "FeatureCollection", "features": [ {"type": "Feature", "properties": {"norad_id": 35290, "name": "COSMOS 2251 DEB", "group": "cosmos-2251-debris", "lat": 34.455656487458256, "lon": -145.49815201546718, "alt_km": 624.0754776642916, "timestamp": "2025-12-19T14:48:36.644177+00:00", "meta": {"OBJECT_NAME": "COSMOS 2251 DEB", "OBJECT_ID": "1993-036AJU", "EPOCH": "2025-12-18T10:35:37.740192", "MEAN_MOTION": 14.80538668, "ECCENTRICITY": 0.00017523, "INCLINATION": 74.0053, "RA_OF_ASC_NODE": 48.1735, "ARG_OF_PERICENTER": 190.3211, "MEAN_ANOMALY": 169.793, "EPHEMERIS_TYPE": 0, "CLASSIFICATION_TYPE": "U", "NORAD_CAT_ID": 35290, "ELEMENT_SET_NO": 999, "REV_AT_EPOCH": 88042, "BSTAR": 0.0015865438, "MEAN_MOTION_DOT": 0.00012147, "MEAN_MOTION_DDOT": 0}, "tle": {"line1": "1 35290U 93036AJU 25352.44140903  .00012147  00000+0  15865-2 0  9993", "line2": "2 35290  74.0053  48.1735 0001752 190.3211 169.7930 14.80538668880426"}}, "geometry": {"type": "Point", "coordinates": [-145.49815201546718, 34.455656487458256]}}, {"type": "Feature", "properties": {"norad_id": 35432, "name": "COSMOS 2251 DEB", "group": "cosmos-2251-debris", "lat": -0.020641754019517417, "lon": 1.0349686733033767, "alt_km": 489.0640008745331, "timestamp": "2025-12-19T14:48:36.644188+00:00", "meta": {"OBJECT_NAME": "COSMOS 2251 DEB", "OBJECT_ID": "1993-036AKA", "EPOCH": "2025-12-19T06:55:58.336896", "MEAN_MOTION": 15.23987911, "ECCENTRICITY": 0.00124391, "INCLINATION": 74.0214, "RA_OF_ASC_NODE": 1.7334, "ARG_OF_PERICENTER": 330.4221, "MEAN_ANOMALY": 29.6273, "EPHEMERIS_TYPE": 0, "CLASSIFICATION_TYPE": "U", "NORAD_CAT_ID": 35432, "ELEMENT_SET_NO": 999, "REV_AT_EPOCH": 87603, "BSTAR": 0.0023120453, "MEAN_MOTION_DOT": 0.00056512, "MEAN_MOTION_DDOT": 0}, "tle": {"line1": "1 35432U 93036AKA 25353.28886964  .00056512  00000+0  23120-2 0  9995", "line2": "2 35432  74.0214   1.7334 0012439 330.4221  29.6273 15.23987911876038"}}, "geometry": {"type": "Point", "coordinates": [1.0349686733033767, -0.020641754019517417]}}, {"type": "Feature", "properties": {"norad_id": 35433, "name": "COSMOS 2251 DEB", "group": "cosmos-2251-debris", "lat": 36.85979955472009, "lon": 133.4561843156431, "alt_km": 782.5191330407315, "timestamp": "2025-12-19T14:48:36.644203+00:00", "meta": {"OBJECT_NAME": "COSMOS 2251 DEB", "OBJECT_ID": "1993-036AKB", "EPOCH": "2025-12-10T18:27:52.031808", "MEAN_MOTION": 14.34742553, "ECCENTRICITY": 0.00254013, "INCLINATION": 74.0339, "RA_OF_ASC_NODE": 342.0559, "ARG_OF_PERICENTER": 37.4572, "MEAN_ANOMALY": 142.4072, "EPHEMERIS_TYPE": 0, "CLASSIFICATION_TYPE": "U", "NORAD_CAT_ID": 35433, "ELEMENT_SET_NO": 999, "REV_AT_EPOCH": 86552, "BSTAR": 0.00041847558, "MEAN_MOTION_DOT": 1.164e-05, "MEAN_MOTION_DDOT": 0}, "tle": {"line1": "1 35433U 93036AKB 25344.76935222  .00001164  00000+0  41848-3 0  9992", "line2": "2 35433  74.0339 342.0559 0025401  37.4572 142.4072 14.34742553865528"}}, "geometry": {"type": "Point", "coordinates": [133.4561843156431, 36.85979955472009]}}, {"type": "Feature", "properties": {"norad_id": 35434, "name": "COSMOS 2251 DEB", "group": "cosmos-2251-debris", "lat": -10.760729631885244, "lon": 24.333530101570993, "alt_km": 797.7409009519051, "timestamp": "2025-12-19T14:48:36.644213+00:00", "meta": {"OBJECT_NAME": "COSMOS 2251 DEB", "OBJECT_ID": "1993-036AKC", "EPOCH": "2025-12-13T21:29:58.278624", "MEAN_MOTION": 14.25692247, "ECCENTRICITY": 0.00874643, "INCLINATION": 74.0404, "RA_OF_ASC_NODE": 211.5388, "ARG_OF_PERICENTER": 282.0357, "MEAN_ANOMALY": 77.0999, "EPHEMERIS_TYPE": 0, "CLASSIFICATION_TYPE": "U", "NORAD_CAT_ID": 35434, "ELEMENT_SET_NO": 999, "REV_AT_EPOCH": 86134, "BSTAR": 0.00076141319, "MEAN_MOTION_DOT": 1.854e-05, "MEAN_MOTION_DDOT": 0}, "tle": {"line1": "1 35434U 93036AKC 25347.89581341  .00001854  00000+0  76141-3 0  9999", "line2": "2 35434  74.0404 211.5388 0087464 282.0357  77.0999 14.25692247861349"}}, "geometry": {"type": "Point", "coordinates": [24.333530101570993, -10.760729631885244]}}, {"type": "Feature", "properties": {"norad_id": 35435, "name": "COSMOS 2251 DEB", "group": "cosmos-2251-debris", "lat": -66.88617010271834, "lon": -47.26446513449902, "alt_km": 638.3457835332065, "timestamp": "2025-12-19T14:48:36.644224+00:00", "meta": {"OBJECT_NAME": "COSMOS 2251 DEB", "OBJECT_ID": "1993-036AKD", "EPOCH": "2025-12-18T13:24:14.493312", "MEAN_MOTION": 14.78644291, "ECCENTRICITY": 0.00073996, "INCLINATION": 74.0108, "RA_OF_ASC_NODE": 92.6132, "ARG_OF_PERICENTER": 188.8212, "MEAN_ANOMALY": 191.4596, "EPHEMERIS_TYPE": 0, "CLASSIFICATION_TYPE": "U", "NORAD_CAT_ID": 35435, "ELEMENT_SET_NO": 999, "REV_AT_EPOCH": 87625, "BSTAR": 0.0017393261, "MEAN_MOTION_DOT": 0.0001274, "MEAN_MOTION_DDOT": 0}, "tle": {"line1": "1 35435U 93036AKD 25352.55850108  .00012740  00000+0  17393-2 0  9998", "line2": "2 35435  74.0108  92.6132 0007399 188.8212 191.4596 14.78644291876252"}}, "geometry": {"type": "Point", "coordinates": [-47.26446513449902, -66.88617010271834]}}, {"type": "Feature", "properties": {"norad_id": 35439, "name": "COSMOS 2251 DEB", "group": "cosmos-2251-debris", "lat": -36.51166935316612, "lon": -44.79537815411644, "alt_km": 867.8250955944268, "timestamp": "2025-12-19T14:48:36.644234+00:00", "meta": {"OBJECT_NAME": "COSMOS 2251 DEB", "OBJECT_ID": "1993-036AKH", "EPOCH": "2025-12-17T04:00:48.812832", "MEAN_MOTION": 13.92829249, "ECCENTRICITY": 0.02424604, "INCLINATION": 74.0187, "RA_OF_ASC_NODE": 127.1529, "ARG_OF_PERICENTER": 295.4748, "MEAN_ANOMALY": 245.9503, "EPHEMERIS_TYPE": 0, "CLASSIFICATION_TYPE": "U", "NORAD_CAT_ID": 35439, "ELEMENT_SET_NO": 999, "REV_AT_EPOCH": 84022, "BSTAR": 0.0013909461, "MEAN_MOTION_DOT": 2.269e-05, "MEAN_MOTION_DDOT": 0}, "tle": {"line1": "1 35439U 93036AKH 25351.16723163  .00002269  00000+0  13909-2 0  9992", "line2": "2 35439  74.0187 127.1529 0242460 295.4748 245.9503 13.92829249840220"}}, "geometry": {"type": "Point", "coordinates": [-44.79537815411644, -36.51166935316612]}}, {"type": "Feature", "properties": {"norad_id": 35440, "name": "COSMOS 2251 DEB", "group": "cosmos-2251-debris", "lat": 11.77078058182213, "lon": -162.27554414200378, "alt_km": 627.5019632282674, "timestamp": "2025-12-19T14:48:36.644245+00:00", "meta": {"OBJECT_NAME": "COSMOS 2251 DEB", "OBJECT_ID": "1993-036AKJ", "EPOCH": "2025-12-17T20:15:19.490976", "MEAN_MOTION": 14.68838958, "ECCENTRICITY": 0.00695054, "INCLINATION": 74.0134, "RA_OF_ASC_NODE": 197.7346, "ARG_OF_PERICENTER": 337.3687, "MEAN_ANOMALY": 22.4422, "EPHEMERIS_TYPE": 0, "CLASSIFICATION_TYPE": "U", "NORAD_CAT_ID": 35440, "ELEMENT_SET_NO": 999, "REV_AT_EPOCH": 68840, "BSTAR": 0.00030670457, "MEAN_MOTION_DOT": 1.824e-05, "MEAN_MOTION_DDOT": 0}, "tle": {"line1": "1 35440U 93036AKJ 25351.84397559  .00001824  00000+0  30670-3 0  9996", "line2": "2 35440  74.0134 197.7346 0069505 337.3687  22.4422 14.68838958688408"}}, "geometry": {"type": "Point", "coordinates": [-162.27554414200378, 11.77078058182213]}}, {"type": "Feature", "properties": {"norad_id": 35441, "name": "COSMOS 2251 DEB", "group": "cosmos-2251-debris", "lat": 7.281121487558665, "lon": 102.92188957836964, "alt_km": 660.5482676467991, "timestamp": "2025-12-19T14:48:36.644255+00:00", "meta": {"OBJECT_NAME": "COSMOS 2251 DEB", "OBJECT_ID": "1993-036AKK", "EPOCH": "2025-12-15T03:19:30.492768", "MEAN_MOTION": 14.62637993, "ECCENTRICITY": 0.00365994, "INCLINATION": 74.1346, "RA_OF_ASC_NODE": 293.5313, "ARG_OF_PERICENTER": 189.4895, "MEAN_ANOMALY": 170.5586, "EPHEMERIS_TYPE": 0, "CLASSIFICATION_TYPE": "U", "NORAD_CAT_ID": 35441, "ELEMENT_SET_NO": 999, "REV_AT_EPOCH": 87465, "BSTAR": 0.00095338273, "MEAN_MOTION_DOT": 4.868e-05, "MEAN_MOTION_DDOT": 0}, "tle": {"line1": "1 35441U 93036AKK 25349.13854737  .00004868  00000+0  95338-3 0  9995", "line2": "2 35441  74.1346 293.5313 0036599 189.4895 170.5586 14.62637993874658"}}, "geometry": {"type": "Point", "coordinates": [102.92188957836964, 7.281121487558665]}}, {"type": "Feature", "properties": {"norad_id": 35442, "name": "COSMOS 2251 DEB", "group": "cosmos-2251-debris", "lat": -53.87908318003366, "lon": -71.40368691091824, "alt_km": 623.854082523615, "timestamp": "2025-12-19T14:48:36.644266+00:00", "meta": {"OBJECT_NAME": "COSMOS 2251 DEB", "OBJECT_ID": "1993-036AKL", "EPOCH": "2025-12-17T00:17:27.406464", "MEAN_MOTION": 14.84602937, "ECCENTRICITY": 0.00037296, "INCLINATION": 74.0275, "RA_OF_ASC_NODE": 90.6565, "ARG_OF_PERICENTER": 70.0102, "MEAN_ANOMALY": 290.1478, "EPHEMERIS_TYPE": 0, "CLASSIFICATION_TYPE": "U", "NORAD_CAT_ID": 35442, "ELEMENT_SET_NO": 999, "REV_AT_EPOCH": 87416, "BSTAR": 0.0016861079, "MEAN_MOTION_DOT": 0.00014243, "MEAN_MOTION_DDOT": 0}, "tle": {"line1": "1 35442U 93036AKL 25351.01212276  .00014243  00000+0  16861-2 0  9993", "line2": "2 35442  74.0275  90.6565 0003729  70.0102 290.1478 14.84602937874168"}}, "geometry": {"type": "Point", "coordinates": [-71.40368691091824, -53.87908318003366]}}, {"type": "Feature", "properties": {"norad_id": 35443, "name": "COSMOS 2251 DEB", "group": "cosmos-2251-debris", "lat": -36.40141455192791, "lon": 149.86409843986107, "alt_km": 606.7389516221701, "timestamp": "2025-12-19T14:48:36.644276+00:00", "meta": {"OBJECT_NAME": "COSMOS 2251 DEB", "OBJECT_ID": "1993-036AKM", "EPOCH": "2025-12-18T04:10:08.492160", "MEAN_MOTION": 14.97139809, "ECCENTRICITY": 0.00729742, "INCLINATION": 73.9862, "RA_OF_ASC_NODE": 320.5674, "ARG_OF_PERICENTER": 101.0134, "MEAN_ANOMALY": 259.9271, "EPHEMERIS_TYPE": 0, "CLASSIFICATION_TYPE": "U", "NORAD_CAT_ID": 35443, "ELEMENT_SET_NO": 999, "REV_AT_EPOCH": 86959, "BSTAR": 0.0028832357, "MEAN_MOTION_DOT": 0.00035302, "MEAN_MOTION_DDOT": 0}, "tle": {"line1": "1 35443U 93036AKM 25352.17370940  .00035302  00000+0  28832-2 0  9995", "line2": "2 35443  73.9862 320.5674 0072974 101.0134 259.9271 14.97139809869595"}}, "geometry": {"type": "Point", "coordinates": [149.86409843986107, -36.40141455192791]}}]}